{"type": "FeatureCollection", "features": [ {"type": "Feature", "properties": {"norad_id": 45807, "name": "BEIDOU-3 G3 (C61)", "group": "gnss", "lat": -1.9659338586719937, "lon": -9.84152639136634, "alt_km": 35762.483960866615, "timestamp": "2025-12-22T09:53:37.648391+00:00", "meta": {"OBJECT_NAME": "BEIDOU-3 G3 (C61)", "OBJECT_ID": "2020-040A", "EPOCH": "2025-12-21T13:52:43.971744", "MEAN_MOTION": 1.00269819, "ECCENTRICITY": 0.0006499, "INCLINATION": 2.0115, "RA_OF_ASC_NODE": 66.6552, "ARG_OF_PERICENTER": 309.2812, "MEAN_ANOMALY": 33.2123, "EPHEMERIS_TYPE": 0, "CLASSIFICATION_TYPE": "U", "NORAD_CAT_ID": 45807, "ELEMENT_SET_NO": 999, "REV_AT_EPOCH": 2028, "BSTAR": 0, "MEAN_MOTION_DOT": -3.32e-06, "MEAN_MOTION_DDOT": 0}, "tle": {"line1": "1 45807U 20040A   25355.57828671 -.00000332  00000+0  00000+0 0  9991", "line2": "2 45807   2.0115  66.6552 0006499 309.2812  33.2123  1.00269819 20280"}}, "geometry": {"type": "Point", "coordinates": [-9.84152639136634, -1.9659338586719937]}}, {"type": "Feature", "properties": {"norad_id": 45854, "name": "GPS BIII-3  (PRN 23)", "group": "gnss", "lat": 41.3177815653051, "lon": -179.67632529342154, "alt_km": 20138.01627995812, "timestamp": "2025-12-22T09:53:37.648404+00:00", "meta": {"OBJECT_NAME": "GPS BIII-3  (PRN 23)", "OBJECT_ID": "2020-041A", "EPOCH": "2025-12-20T05:44:36.632832", "MEAN_MOTION": 2.00561934, "ECCENTRICITY": 0.00606224, "INCLINATION": 56.5518, "RA_OF_ASC_NODE": 35.8938, "ARG_OF_PERICENTER": 203.675, "MEAN_ANOMALY": 155.7759, "EPHEMERIS_TYPE": 0, "CLASSIFICATION_TYPE": "U", "NORAD_CAT_ID": 45854, "ELEMENT_SET_NO": 999, "REV_AT_EPOCH": 4044, "BSTAR": 0, "MEAN_MOTION_DOT": -5.8e-07, "MEAN_MOTION_DDOT": 0}, "tle": {"line1": "1 45854U 20041A   25354.23931288 -.00000058  00000+0  00000+0 0  9990", "line2": "2 45854  56.5518  35.8938 0060622 203.6750 155.7759  2.00561934 40444"}}, "geometry": {"type": "Point", "coordinates": [-179.67632529342154, 41.3177815653051]}}, {"type": "Feature", "properties": {"norad_id": 46114, "name": "GALAXY 30 (WAAS/PRN 135)", "group": "gnss", "lat": 0.041700254634613076, "lon": 114.61259192218233, "alt_km": 35793.98973634316, "timestamp": "2025-12-22T09:53:37.648415+00:00", "meta": {"OBJECT_NAME": "GALAXY 30 (WAAS/PRN 135)", "OBJECT_ID": "2020-056C", "EPOCH": "2025-12-22T02:17:55.557888", "MEAN_MOTION": 1.00270018, "ECCENTRICITY": 0.0001987, "INCLINATION": 0.0184, "RA_OF_ASC_NODE": 4.1133, "ARG_OF_PERICENTER": 262.4683, "MEAN_ANOMALY": 93.8138, "EPHEMERIS_TYPE": 0, "CLASSIFICATION_TYPE": "U", "NORAD_CAT_ID": 46114, "ELEMENT_SET_NO": 999, "REV_AT_EPOCH": 1951, "BSTAR": 0, "MEAN_MOTION_DOT": 5.9e-07, "MEAN_MOTION_DDOT": 0}, "tle": {"line1": "1 46114U 20056C   25356.09578192  .00000059  00000+0  00000+0 0  9993", "line2": "2 46114   0.0184   4.1133 0001987 262.4683  93.8138  1.00270018 19516"}}, "geometry": {"type": "Point", "coordinates": [114.61259192218233, 0.041700254634613076]}}, {"type": "Feature", "properties": {"norad_id": 46805, "name": "COSMOS 2547 (705K)", "group": "gnss", "lat": -57.20626665852721, "lon": 150.81784189963227, "alt_km": 19129.362705466454, "timestamp": "2025-12-22T09:53:37.648427+00:00", "meta": {"OBJECT_NAME": "COSMOS 2547 (705K)", "OBJECT_ID": "2020-075A", "EPOCH": "2025-12-22T00:46:38.592768", "MEAN_MOTION": 2.1310024, "ECCENTRICITY": 0.000611, "INCLINATION": 64.5968, "RA_OF_ASC_NODE": 198.3861, "ARG_OF_PERICENTER": 227.635, "MEAN_ANOMALY": 132.3817, "EPHEMERIS_TYPE": 0, "CLASSIFICATION_TYPE": "U", "NORAD_CAT_ID": 46805, "ELEMENT_SET_NO": 999, "REV_AT_EPOCH": 4013, "BSTAR": 0, "MEAN_MOTION_DOT": 9.6e-07, "MEAN_MOTION_DDOT": 0}, "tle": {"line1": "1 46805U 20075A   25356.03239112  .00000096  00000+0  00000+0 0  9992", "line2": "2 46805  64.5968 198.3861 0006110 227.6350 132.3817  2.13100240 40138"}}, "geometry": {"type": "Point", "coordinates": [150.81784189963227, -57.20626665852721]}}, {"type": "Feature", "properties": {"norad_id": 46826, "name": "GPS BIII-4  (PRN 14)", "group": "gnss", "lat": 53.06832684642713, "lon": -37.19011114074881, "alt_km": 20218.535295748366, "timestamp": "2025-12-22T09:53:37.648439+00:00", "meta": {"OBJECT_NAME": "GPS BIII-4  (PRN 14)", "OBJECT_ID": "2020-078A", "EPOCH": "2025-12-16T01:06:13.902336", "MEAN_MOTION": 2.00566891, "ECCENTRICITY": 0.0064755, "INCLINATION": 54.0145, "RA_OF_ASC_NODE": 218.2068, "ARG_OF_PERICENTER": 203.3828, "MEAN_ANOMALY": 339.3936, "EPHEMERIS_TYPE": 0, "CLASSIFICATION_TYPE": "U", "NORAD_CAT_ID": 46826, "ELEMENT_SET_NO": 999, "REV_AT_EPOCH": 3783, "BSTAR": 0, "MEAN_MOTION_DOT": 6.7e-07, "MEAN_MOTION_DDOT": 0}, "tle": {"line1": "1 46826U 20078A   25350.04599424  .00000067  00000+0  00000+0 0  9996", "line2": "2 46826  54.0145 218.2068 0064755 203.3828 339.3936  2.00566891 37831"}}, "geometry": {"type": "Point", "coordinates": [-37.19011114074881, 53.06832684642713]}}, {"type": "Feature", "properties": {"norad_id": 48859, "name": "GPS BIII-5  (PRN 11)", "group": "gnss", "lat": -52.629277910283015, "lon": -85.76535673570254, "alt_km": 20147.34152768887, "timestamp": "2025-12-22T09:53:37.648450+00:00", "meta": {"OBJECT_NAME": "GPS BIII-5  (PRN 11)", "OBJECT_ID": "2021-054A", "EPOCH": "2025-12-08T04:14:32.423424", "MEAN_MOTION": 2.00553627, "ECCENTRICITY": 0.0024678, "INCLINATION": 55.2581, "RA_OF_ASC_NODE": 340.1367, "ARG_OF_PERICENTER": 233.3993, "MEAN_ANOMALY": 212.8594, "EPHEMERIS_TYPE": 0, "CLASSIFICATION_TYPE": "U", "NORAD_CAT_ID": 48859, "ELEMENT_SET_NO": 999, "REV_AT_EPOCH": 3292, "BSTAR": 0, "MEAN_MOTION_DOT": -8.6e-07, "MEAN_MOTION_DDOT": 0}, "tle": {"line1": "1 48859U 21054A   25342.17676416 -.00000086  00000+0  00000+0 0  9993", "line2": "2 48859  55.2581 340.1367 0024678 233.3993 212.8594  2.00553627 32922"}}, "geometry": {"type": "Point", "coordinates": [-85.76535673570254, -52.629277910283015]}}, {"type": "Feature", "properties": {"norad_id": 49336, "name": "QZS-1R (QZSS/PRN 196)", "group": "gnss", "lat": -33.209722637718485, "lon": 22.397260841502465, "alt_km": 32843.554209046786, "timestamp": "2025-12-22T09:53:37.648462+00:00", "meta": {"OBJECT_NAME": "QZS-1R (QZSS/PRN 196)", "OBJECT_ID": "2021-096A", "EPOCH": "2025-12-21T13:52:43.837824", "MEAN_MOTION": 1.00254729, "ECCENTRICITY": 0.0756914, "INCLINATION": 37.0948, "RA_OF_ASC_NODE": 82.2293, "ARG_OF_PERICENTER": 271.4815, "MEAN_ANOMALY": 79.0907, "EPHEMERIS_TYPE": 0, "CLASSIFICATION_TYPE": "U", "NORAD_CAT_ID": 49336, "ELEMENT_SET_NO": 999, "REV_AT_EPOCH": 1522, "BSTAR": 0, "MEAN_MOTION_DOT": -2.54e-06, "MEAN_MOTION_DDOT": 0}, "tle": {"line1": "1 49336U 21096A   25355.57828516 -.00000254  00000+0  00000+0 0  9995", "line2": "2 49336  37.0948  82.2293 0756914 271.4815  79.0907  1.00254729 15226"}}, "geometry": {"type": "Point", "coordinates": [22.397260841502465, -33.209722637718485]}}, {"type": "Feature", "properties": {"norad_id": 49809, "name": "GSAT0223 (GALILEO 27)", "group": "gnss", "lat": -8.974282056749692, "lon": -19.401144712264017, "alt_km": 23224.43720029049, "timestamp": "2025-12-22T09:53:37.648473+00:00", "meta": {"OBJECT_NAME": "GSAT0223 (GALILEO 27)", "OBJECT_ID": "2021-116A", "EPOCH": "2025-12-19T11:56:47.637312", "MEAN_MOTION": 1.7047609, "ECCENTRICITY": 0.00044147, "INCLINATION": 57.2179, "RA_OF_ASC_NODE": 346.5305, "ARG_OF_PERICENTER": 254.6091, "MEAN_ANOMALY": 105.9777, "EPHEMERIS_TYPE": 0, "CLASSIFICATION_TYPE": "U", "NORAD_CAT_ID": 49809, "ELEMENT_SET_NO": 999, "REV_AT_EPOCH": 2512, "BSTAR": 0, "MEAN_MOTION_DOT": -7.2e-07, "MEAN_MOTION_DDOT": 0}, "tle": {"line1": "1 49809U 21116A   25353.49777358 -.00000072  00000+0  00000+0 0  9997", "line2": "2 49809  57.2179 346.5305 0004414 254.6091 105.9777  1.70476090 25129"}}, "geometry": {"type": "Point", "coordinates": [-19.401144712264017, -8.974282056749692]}}, {"type": "Feature", "properties": {"norad_id": 49810, "name": "GSAT0224 (GALILEO 28)", "group": "gnss", "lat": 55.34797773516355, "lon": 97.63018867583305, "alt_km": 23225.90251799404, "timestamp": "2025-12-22T09:53:37.648486+00:00", "meta": {"OBJECT_NAME": "GSAT0224 (GALILEO 28)", "OBJECT_ID": "2021-116B", "EPOCH": "2025-12-20T04:43:34.979232", "MEAN_MOTION": 1.70476091, "ECCENTRICITY": 0.0003747, "INCLINATION": 57.2188, "RA_OF_ASC_NODE": 346.5104, "ARG_OF_PERICENTER": 259.7047, "MEAN_ANOMALY": 282.5653, "EPHEMERIS_TYPE": 0, "CLASSIFICATION_TYPE": "U", "NORAD_CAT_ID": 49810, "ELEMENT_SET_NO": 999, "REV_AT_EPOCH": 2515, "BSTAR": 0, "MEAN_MOTION_DOT": -7e-07, "MEAN_MOTION_DDOT": 0}, "tle": {"line1": "1 49810U 21116B   25354.19693263 -.00000070  00000+0  00000+0 0  9997", "line2": "2 49810  57.2188 346.5104 0003747 259.7047 282.5653  1.70476091 25152"}}, "geometry": {"type": "Point", "coordinates": [97.63018867583305, 55.34797773516355]}}, {"type": "Feature", "properties": {"norad_id": 52984, "name": "COSMOS 2557 (706K)", "group": "gnss", "lat": 14.016060562625336, "lon": 133.82623515011568, "alt_km": 19142.568614802098, "timestamp": "2025-12-22T09:53:37.648500+00:00", "meta": {"OBJECT_NAME": "COSMOS 2557 (706K)", "OBJECT_ID": "2022-075A", "EPOCH": "2025-12-21T06:13:04.908576", "MEAN_MOTION": 2.13102077, "ECCENTRICITY": 0.0013538, "INCLINATION": 64.405, "RA_OF_ASC_NODE": 320.7521, "ARG_OF_PERICENTER": 278.2868, "MEAN_ANOMALY": 81.5534, "EPHEMERIS_TYPE": 0, "CLASSIFICATION_TYPE": "U", "NORAD_CAT_ID": 52984, "ELEMENT_SET_NO": 999, "REV_AT_EPOCH": 2692, "BSTAR": 0, "MEAN_MOTION_DOT": -4.9e-07, "MEAN_MOTION_DDOT": 0}, "tle": {"line1": "1 52984U 22075A   25355.25908459 -.00000049  00000+0  00000+0 0  9998", "line2": "2 52984  64.4050 320.7521 0013538 278.2868  81.5534  2.13102077 26928"}}, "geometry": {"type": "Point", "coordinates": [133.82623515011568, 14.016060562625336]}}]}